start=new Date('2021-09-21T00:00:00.000Z').valueOf();
sats=[{"EPHEMERIS_TYPE":"0","EPOCH":"2021-09-20T17:58:46.350048","LAUNCH_DATE":"2020-11-25","MEAN_MOTION_DDOT":"0.0000000000000","MEAN_MOTION_DOT":"0.00000766","FILE":"3121356","INCLINATION":"53.0556","OBJECT_ID":"2020-088AF","BSTAR":"0.00007033400000","ECCENTRICITY":"0.00016300","OBJECT_NAME":"STARLINK-1864","GP_ID":"185124276","REF_FRAME":"TEME","TIME_SYSTEM":"UTC","CLASSIFICATION_TYPE":"U","DECAY_DATE":null,"RA_OF_ASC_NODE":"63.1908","PERIOD":"95.592","ARG_OF_PERICENTER":"99.3128","MEAN_ELEMENT_THEORY":"SGP4","APOAPSIS":"548.345","TLE_LINE1":"1 47151U 20088AF  21263.74914757  .00000766  00000-0  70334-4 0  9994","SITE":"AFETR","ELEMENT_SET_NO":"999","CENTER_NAME":"EARTH","MEAN_MOTION":"15.06399022","NORAD_CAT_ID":"47151","OBJECT_TYPE":"PAYLOAD","MEAN_ANOMALY":"260.8045","COUNTRY_CODE":"US","SEMIMAJOR_AXIS":"6925.352","PERIAPSIS":"546.088","RCS_SIZE":"LARGE","TLE_LINE2":"2 47151  53.0556  63.1908 0001630  99.3128 260.8045 15.06399022 46016","REV_AT_EPOCH":"4601"},{"SITE":"AFETR","ELEMENT_SET_NO":"999","TLE_LINE1":"1 47152U 20088AG  21263.86711524  .00001060  00000-0  90059-4 0  9999","MEAN_ELEMENT_THEORY":"SGP4","APOAPSIS":"548.573","PERIOD":"95.592","ARG_OF_PERICENTER":"98.4911","MEAN_ANOMALY":"261.6300","OBJECT_TYPE":"PAYLOAD","NORAD_CAT_ID":"47152","MEAN_MOTION":"15.06399047","CENTER_NAME":"EARTH","PERIAPSIS":"545.860","COUNTRY_CODE":"US","SEMIMAJOR_AXIS":"6925.351","REV_AT_EPOCH":"4603","RCS_SIZE":"LARGE","TLE_LINE2":"2 47152  53.0556  62.6750 0001959  98.4911 261.6300 15.06399047 46032","MEAN_MOTION_DOT":"0.00001060","MEAN_MOTION_DDOT":"0.0000000000000","LAUNCH_DATE":"2020-11-25","EPOCH":"2021-09-20T20:48:38.756736","EPHEMERIS_TYPE":"0","ECCENTRICITY":"0.00019590","BSTAR":"0.00009005900000","INCLINATION":"53.0556","OBJECT_ID":"2020-088AG","FILE":"3121356","GP_ID":"185124026","OBJECT_NAME":"STARLINK-1866","RA_OF_ASC_NODE":"62.6750","DECAY_DATE":null,"CLASSIFICATION_TYPE":"U","TIME_SYSTEM":"UTC","REF_FRAME":"TEME"},{"ECCENTRICITY":"0.00018760","BSTAR":"-0.00004204100000","FILE":"3121356","INCLINATION":"53.0565","OBJECT_ID":"2020-088AH","MEAN_MOTION_DDOT":"0.0000000000000","MEAN_MOTION_DOT":"-0.00000908","LAUNCH_DATE":"2020-11-25","EPHEMERIS_TYPE":"0","EPOCH":"2021-09-20T20:12:06.484608","DECAY_DATE":null,"RA_OF_ASC_NODE":"67.7875","TIME_SYSTEM":"UTC","CLASSIFICATION_TYPE":"U","REF_FRAME":"TEME","GP_ID":"185122774","OBJECT_NAME":"STARLINK-1867","OBJECT_TYPE":"PAYLOAD","MEAN_ANOMALY":"268.8312","NORAD_CAT_ID":"47153","MEAN_MOTION":"15.06395096","CENTER_NAME":"EARTH","SITE":"AFETR","ELEMENT_SET_NO":"999","APOAPSIS":"548.528","MEAN_ELEMENT_THEORY":"SGP4","TLE_LINE1":"1 47153U 20088AH  21263.84174172 -.00000908  00000-0 -42041-4 0  9990","PERIOD":"95.592","ARG_OF_PERICENTER":"91.2891","REV_AT_EPOCH":"4596","TLE_LINE2":"2 47153  53.0565  67.7875 0001876  91.2891 268.8312 15.06395096 45966","RCS_SIZE":"LARGE","PERIAPSIS":"545.929","SEMIMAJOR_AXIS":"6925.364","COUNTRY_CODE":"US"},{"PERIAPSIS":"546.119","SEMIMAJOR_AXIS":"6925.350","COUNTRY_CODE":"US","REV_AT_EPOCH":"4615","RCS_SIZE":"LARGE","TLE_LINE2":"2 47154  53.0552  53.4021 0001582  99.8568 260.2600 15.06399561 46156","ELEMENT_SET_NO":"999","SITE":"AFETR","TLE_LINE1":"1 47154U 20088AJ  21263.70584984  .00000771  00000-0  70627-4 0  9999","APOAPSIS":"548.310","MEAN_ELEMENT_THEORY":"SGP4","ARG_OF_PERICENTER":"99.8568","PERIOD":"95.592","MEAN_ANOMALY":"260.2600","OBJECT_TYPE":"PAYLOAD","NORAD_CAT_ID":"47154","MEAN_MOTION":"15.06399561","CENTER_NAME":"EARTH","GP_ID":"185123525","OBJECT_NAME":"STARLINK-1868","RA_OF_ASC_NODE":"53.4021","DECAY_DATE":null,"CLASSIFICATION_TYPE":"U","TIME_SYSTEM":"UTC","REF_FRAME":"TEME","MEAN_MOTION_DOT":"0.00000771","MEAN_MOTION_DDOT":"0.0000000000000","LAUNCH_DATE":"2020-11-25","EPOCH":"2021-09-20T16:56:25.426176","EPHEMERIS_TYPE":"0","ECCENTRICITY":"0.00015820","BSTAR":"0.00007062700000","OBJECT_ID":"2020-088AJ","INCLINATION":"53.0552","FILE":"3121356"},{"SEMIMAJOR_AXIS":"6925.345","COUNTRY_CODE":"US","PERIAPSIS":"545.941","TLE_LINE2":"2 47155  53.0539  74.4249 0001832  91.8130 268.3069 15.06401230 45831","RCS_SIZE":"LARGE","REV_AT_EPOCH":"4583","PERIOD":"95.592","ARG_OF_PERICENTER":"91.8130","TLE_LINE1":"1 47155U 20088AK  21263.47546440  .00000405  00000-0  46121-4 0  9995","APOAPSIS":"548.479","MEAN_ELEMENT_THEORY":"SGP4","SITE":"AFETR","ELEMENT_SET_NO":"999","MEAN_MOTION":"15.06401230","CENTER_NAME":"EARTH","NORAD_CAT_ID":"47155","MEAN_ANOMALY":"268.3069","OBJECT_TYPE":"PAYLOAD","OBJECT_NAME":"STARLINK-1869","GP_ID":"185096589","REF_FRAME":"TEME","CLASSIFICATION_TYPE":"U","TIME_SYSTEM":"UTC","RA_OF_ASC_NODE":"74.4249","DECAY_DATE":null,"EPOCH":"2021-09-20T11:24:40.124160","EPHEMERIS_TYPE":"0","LAUNCH_DATE":"2020-11-25","MEAN_MOTION_DOT":"0.00000405","MEAN_MOTION_DDOT":"0.0000000000000","OBJECT_ID":"2020-088AK","INCLINATION":"53.0539","FILE":"3121163","BSTAR":"0.00004612100000","ECCENTRICITY":"0.00018320"},{"CENTER_NAME":"EARTH","MEAN_MOTION":"15.42159781","OBJECT_TYPE":"PAYLOAD","MEAN_ANOMALY":"318.5328","NORAD_CAT_ID":"47156","MEAN_ELEMENT_THEORY":"SGP4","APOAPSIS":"441.039","TLE_LINE1":"1 47156U 20088AL  21263.79592660 -.00000772  00000-0 -82629-5 0  9999","PERIOD":"93.376","ARG_OF_PERICENTER":"41.5822","SITE":"AFETR","ELEMENT_SET_NO":"999","TLE_LINE2":"2 47156  53.0576   8.8425 0001908  41.5822 318.5328 15.42159781 46797","RCS_SIZE":"LARGE","REV_AT_EPOCH":"4679","COUNTRY_CODE":"US","SEMIMAJOR_AXIS":"6817.873","PERIAPSIS":"438.437","FILE":"3121356","INCLINATION":"53.0576","OBJECT_ID":"2020-088AL","ECCENTRICITY":"0.00019080","BSTAR":"-0.00000826290000","LAUNCH_DATE":"2020-11-25","EPHEMERIS_TYPE":"0","EPOCH":"2021-09-20T19:06:08.058240","MEAN_MOTION_DDOT":"0.0000000000000","MEAN_MOTION_DOT":"-0.00000772","REF_FRAME":"TEME","DECAY_DATE":null,"RA_OF_ASC_NODE":"8.8425","TIME_SYSTEM":"UTC","CLASSIFICATION_TYPE":"U","OBJECT_NAME":"STARLINK-1870","GP_ID":"185124527"},{"TLE_LINE2":"2 47157  53.0559  62.7746 0001873  95.8095 264.3107 15.06402045 46033","RCS_SIZE":"LARGE","REV_AT_EPOCH":"4603","COUNTRY_CODE":"US","SEMIMAJOR_AXIS":"6925.342","PERIAPSIS":"545.910","MEAN_MOTION":"15.06402045","CENTER_NAME":"EARTH","NORAD_CAT_ID":"47157","OBJECT_TYPE":"PAYLOAD","MEAN_ANOMALY":"264.3107","ARG_OF_PERICENTER":"95.8095","PERIOD":"95.592","MEAN_ELEMENT_THEORY":"SGP4","APOAPSIS":"548.504","TLE_LINE1":"1 47157U 20088AM  21263.84498407  .00000484  00000-0  51424-4 0  9996","ELEMENT_SET_NO":"999","SITE":"AFETR","REF_FRAME":"TEME","TIME_SYSTEM":"UTC","CLASSIFICATION_TYPE":"U","DECAY_DATE":null,"RA_OF_ASC_NODE":"62.7746","OBJECT_NAME":"STARLINK-1871","GP_ID":"185123275","FILE":"3121356","INCLINATION":"53.0559","OBJECT_ID":"2020-088AM","BSTAR":"0.00005142400000","ECCENTRICITY":"0.00018730","EPHEMERIS_TYPE":"0","EPOCH":"2021-09-20T20:16:46.623648","LAUNCH_DATE":"2020-11-25","MEAN_MOTION_DDOT":"0.0000000000000","MEAN_MOTION_DOT":"0.00000484"},{"TLE_LINE2":"2 47158  53.0554  52.6466 0001358  93.3867 266.7277 15.06398328 46171","RCS_SIZE":"LARGE","REV_AT_EPOCH":"4617","COUNTRY_CODE":"US","SEMIMAJOR_AXIS":"6925.354","PERIAPSIS":"546.278","CENTER_NAME":"EARTH","MEAN_MOTION":"15.06398328","NORAD_CAT_ID":"47158","MEAN_ANOMALY":"266.7277","OBJECT_TYPE":"PAYLOAD","ARG_OF_PERICENTER":"93.3867","PERIOD":"95.592","TLE_LINE1":"1 47158U 20088AN  21263.86802217 -.00000729  00000-0 -30048-4 0  9990","MEAN_ELEMENT_THEORY":"SGP4","APOAPSIS":"548.159","SITE":"AFETR","ELEMENT_SET_NO":"999","REF_FRAME":"TEME","CLASSIFICATION_TYPE":"U","TIME_SYSTEM":"UTC","RA_OF_ASC_NODE":"52.6466","DECAY_DATE":null,"OBJECT_NAME":"STARLINK-1873","GP_ID":"185123025","INCLINATION":"53.0554","OBJECT_ID":"2020-088AN","FILE":"3121356","BSTAR":"-0.00003004800000","ECCENTRICITY":"0.00013580","EPOCH":"2021-09-20T20:49:57.115488","EPHEMERIS_TYPE":"0","LAUNCH_DATE":"2020-11-25","MEAN_MOTION_DOT":"-0.00000729","MEAN_MOTION_DDOT":"0.0000000000000"},{"CLASSIFICATION_TYPE":"U","TIME_SYSTEM":"UTC","RA_OF_ASC_NODE":"62.6955","DECAY_DATE":null,"REF_FRAME":"TEME","GP_ID":"185124277","OBJECT_NAME":"STARLINK-1874","BSTAR":"-0.00005700900000","ECCENTRICITY":"0.00014760","INCLINATION":"53.0557","OBJECT_ID":"2020-088AP","FILE":"3121356","MEAN_MOTION_DOT":"-0.00001130","MEAN_MOTION_DDOT":"0.0000000000000","EPOCH":"2021-09-20T20:43:19.605504","EPHEMERIS_TYPE":"0","LAUNCH_DATE":"2020-11-25","REV_AT_EPOCH":"4603","RCS_SIZE":"LARGE","TLE_LINE2":"2 47159  53.0557  62.6955 0001476 107.4988 252.6162 15.06390059 46036","PERIAPSIS":"546.222","COUNTRY_CODE":"US","SEMIMAJOR_AXIS":"6925.379","NORAD_CAT_ID":"47159","MEAN_ANOMALY":"252.6162","OBJECT_TYPE":"PAYLOAD","CENTER_NAME":"EARTH","MEAN_MOTION":"15.06390059","ELEMENT_SET_NO":"999","SITE":"AFETR","PERIOD":"95.593","ARG_OF_PERICENTER":"107.4988","TLE_LINE1":"1 47159U 20088AP  21263.86342136 -.00001130  00000-0 -57009-4 0  9993","APOAPSIS":"548.266","MEAN_ELEMENT_THEORY":"SGP4"},{"REV_AT_EPOCH":"4632","TLE_LINE2":"2 47160  53.0549  41.6956 0001375  55.2114 304.9020 15.42150419 46326","RCS_SIZE":"LARGE","PERIAPSIS":"438.828","COUNTRY_CODE":"US","SEMIMAJOR_AXIS":"6817.901","NORAD_CAT_ID":"47160","MEAN_ANOMALY":"304.9020","OBJECT_TYPE":"PAYLOAD","CENTER_NAME":"EARTH","MEAN_MOTION":"15.42150419","SITE":"AFETR","ELEMENT_SET_NO":"999","ARG_OF_PERICENTER":"55.2114","PERIOD":"93.376","TLE_LINE1":"1 47160U 20088AQ  21263.75811708  .00002226  00000-0  60601-4 0  9996","APOAPSIS":"440.703","MEAN_ELEMENT_THEORY":"SGP4","CLASSIFICATION_TYPE":"U","TIME_SYSTEM":"UTC","RA_OF_ASC_NODE":"41.6956","DECAY_DATE":null,"REF_FRAME":"TEME","GP_ID":"185124027","OBJECT_NAME":"STARLINK-1875","BSTAR":"0.00006060100000","ECCENTRICITY":"0.00013750","INCLINATION":"53.0549","OBJECT_ID":"2020-088AQ","FILE":"3121356","MEAN_MOTION_DOT":"0.00002226","MEAN_MOTION_DDOT":"0.0000000000000","EPOCH":"2021-09-20T18:11:41.315712","EPHEMERIS_TYPE":"0","LAUNCH_DATE":"2020-11-25"}];
